171P/Spahr,e,21.9450,101.6880,347.0446,3.553922,0.1471100,0.50209492,211.7924,12/23.0/2022,2000,g 13.5,4.0
# From MPEC 2022-X67
172P/Yeung,e,11.2254,30.8755,209.2721,4.216825,0.1138219,0.20459989,240.7694,12/23.0/2022,2000,g 13.0,4.0
# From MPEC 2022-X67
173P/Mueller,e,16.4895,100.3847,29.1461,5.709177,0.0722510,0.26142336,26.8503,12/23.0/2022,2000,g  7.5,4.0
# From MPC 92985
174P/Echeclus,e,4.3439,173.1877,163.3813,10.74199,0.0279948,0.45704774,78.3103,12/23.0/2022,2000,g  9.4,2.0
# From MPC114608
175P/Hergenrother,e,4.9390,112.0760,73.8641,3.633105,0.1423270,0.39367701,169.6720,12/23.0/2022,2000,g 14.0,4.0
# From MPC 89015
176P/LINEAR,e,0.2317,345.9497,34.3191,3.198331,0.1723133,0.19314636,5.5158,12/23.0/2022,2000,g 15.1,2.0
# From MPEC 2020-L06
177P/Barnard,e,31.1269,271.9422,60.5721,24.48689,0.0081340,0.95519596,48.4110,12/23.0/2022,2000,g 15.0,4.0
# From MPEC 2021-F20
178P/Hug-Bell,e,11.0873,102.8384,297.8404,3.632596,0.1423569,0.48245570,126.5477,12/23.0/2022,2000,g 14.6,4.0
# From MPEC 2022-Y15
179P/Jedicke,e,19.8979,115.5136,296.9740,5.932379,0.0682120,0.30585398,14.0712,12/23.0/2022,2000,g  2.5,8.0
# From MPEC 2022-TA0
180P/NEAT,e,16.8606,84.5699,94.6843,3.866583,0.1296323,0.35324293,333.9082,12/23.0/2022,2000,g 11.0,4.0
# From MPC 89012
181P/Shoemaker-Levy,e,17.4860,35.3970,336.2612,3.875000,0.1292101,0.70058832,44.9959,12/23.0/2022,2000,g 11.5,4.0
# From MPEC 2014-J10
182P/LONEOS,e,16.2280,72.4569,54.2278,2.950429,0.1944806,0.66323386,43.7109,12/23.0/2022,2000,g 18.0,4.0
# From MPEC 2022-K19
183P/Korlevic-Juric,e,19.0071,3.9808,167.9778,4.641360,0.0985681,0.11219660,186.4870,12/23.0/2022,2000,g 12.5,2.0
# From MPEC 2020-W26
184P/Lovas,e,4.5740,173.2404,186.5430,3.797088,0.1332073,0.55098240,104.9197,12/23.0/2022,2000,g 13.5,4.0
# From MPC109593
185P/Petriew,e,14.0146,214.1145,181.8886,3.097912,0.1807592,0.69968389,323.5030,12/23.0/2022,2000,g 15.0,4.0
# From MPEC 2022-X67
186P/Garradd,e,28.6747,326.3815,269.7945,4.857325,0.0920679,0.12387624,133.3271,12/23.0/2022,2000,g  7.5,4.0
# From MPEC 2020-SI8
187P/LINEAR,e,13.6363,109.8905,131.3861,4.565375,0.1010391,0.15233251,170.4498,12/23.0/2022,2000,g  9.0,4.0
# From MPEC 2022-K19
188P/LINEAR-Mueller,e,10.5260,358.9653,26.6266,4.370862,0.1078583,0.41676273,229.8504,12/23.0/2022,2000,g 11.5,4.0
# From MPEC 2022-QD9
189P/NEAT,e,20.0680,281.7106,16.3366,2.946081,0.1949113,0.58877760,22.6392,12/23.0/2022,2000,g 19.0,4.0
# From MPEC 2020-K19
190P/Mueller,e,2.1740,335.5414,50.3899,4.230695,0.1132626,0.52218110,277.0911,12/23.0/2022,2000,g 13.0,4.0
# From MPEC 2022-X67
191P/McNaught,e,8.8401,98.2225,284.1197,3.637388,0.1420757,0.38600821,91.2951,12/23.0/2022,2000,g 13.0,4.0
# From MPC 75724
192P/Shoemaker-Levy,e,24.5855,51.6104,313.0504,6.468254,0.0599133,0.77346300,328.9452,12/23.0/2022,2000,g 15.0,4.0
# From MPEC 2022-Y15
193P/LINEAR-NEAT,e,10.6881,335.1754,8.0974,3.576630,0.1457113,0.39368887,70.6442,12/23.0/2022,2000,g 14.0,4.0
# From MPC 98566
194P/LINEAR,e,11.8393,349.6121,128.4846,4.129306,0.1174596,0.56487588,312.1033,12/23.0/2022,2000,g 16.0,4.0
# From MPEC 2022-X67
195P/Hill,e,36.3407,243.1176,249.2712,6.507688,0.0593696,0.31448586,303.8099,12/23.0/2022,2000,g  8.5,4.0
# From MPEC 2022-Y15
196P/Tichy,e,19.3016,24.1119,12.0429,3.804501,0.1328182,0.42822382,7.2631,12/23.0/2022,2000,g 13.5,4.0
# From MPC 94676
197P/LINEAR,e,25.5282,66.3622,188.7510,2.867835,0.2029425,0.62934614,3.0995,12/23.0/2022,2000,g 16.5,2.0
# From NK 1596
198P/ODAS,e,1.3385,358.2251,69.2019,3.596448,0.1445085,0.44425483,212.3264,12/23.0/2022,2000,g  9.0,4.0
# From MPEC 2022-N37
199P/Shoemaker,e,24.9350,92.3502,191.7686,5.884650,0.0690436,0.50543879,344.2886,12/23.0/2022,2000,g 10.0,4.0
# From MPEC 2022-C56
200P/Larsen,e,12.0980,234.7438,134.2983,4.945988,0.0896034,0.33263976,111.2787,12/23.0/2022,2000,g  9.0,4.0
# From MPC 93588
201P/LONEOS,e,5.7397,19.7454,41.5416,3.354630,0.1604121,0.63732474,92.2679,12/23.0/2022,2000,g 14.0,4.0
# From MPEC 2022-X67
202P/Scotti,e,2.1368,177.3097,275.0188,4.116271,0.1180180,0.25720081,299.5167,12/23.0/2022,2000,g 13.5,4.0
# From MPEC 2021-S45
203P/Korlevic,e,2.9728,290.2945,154.7747,4.669435,0.0976804,0.31568600,99.9407,12/23.0/2022,2000,g 14.5,2.0
# From MPEC 2022-Y15
204P/LINEAR-NEAT,e,6.5964,108.4998,356.6507,3.581223,0.1454310,0.48778364,5.2565,12/23.0/2022,2000,g 14.0,4.0
# From MPEC 2022-K19
205P/Giacobini,e,15.3063,179.6022,154.1717,3.542038,0.1478510,0.56800827,50.7636,12/23.0/2022,2000,g 13.0,4.0
# From MPC 75725
206P/Barnard-Boattini,e,33.6402,202.3311,189.5290,3.489867,0.1511788,0.55153512,99.5269,12/23.0/2022,2000,g 19.0,4.0
# From MPC 75725
207P/NEAT,e,10.2005,198.1661,273.0406,3.878902,0.1290152,0.75844808,307.7744,12/23.0/2022,2000,g 16.0,4.0
# From MPEC 2022-K19
208P/McMillan,e,4.4126,36.3399,310.5859,4.042016,0.1212850,0.37415658,286.0668,12/23.0/2022,2000,g 12.5,4.0
# From MPC 90771
209P/LINEAR,e,21.2657,62.7664,152.4400,2.959844,0.1935534,0.67336184,249.7164,12/23.0/2022,2000,g 17.0,2.0
# From MPC105242
210P/Christensen,e,10.2736,93.8061,345.8994,3.163066,0.1752031,0.83362199,173.2658,12/23.0/2022,2000,g 13.5,4.0
# From MPEC 2022-Y15
211P/Hill,e,18.9198,117.1314,4.2776,3.547413,0.1475151,0.34385663,11.7133,12/23.0/2022,2000,g 12.5,4.0
# From MPEC 2021-F20
212P/NEAT,e,22.1505,98.0754,14.0455,3.898598,0.1280387,0.58705378,297.3697,12/23.0/2022,2000,g 17.0,2.0
# From MPEC 2022-GA9
213P/Van Ness,e,10.3807,311.2826,5.7488,3.346265,0.1610139,0.40815418,307.8814,12/23.0/2022,2000,g 10.5,4.0
# From MPC 92986
214P/LINEAR,e,15.1831,348.2487,190.1786,3.619932,0.1431045,0.48591368,12.5631,12/23.0/2022,2000,g 13.0,4.0
# From MPEC 2022-WQ9
215P/NEAT,e,10.5774,56.6799,262.3917,4.330887,0.1093551,0.16621595,123.5247,12/23.0/2022,2000,g 11.0,4.0
# From MPC100284
216P/LINEAR,e,9.0640,359.8063,151.6474,3.859265,0.1300011,0.44854501,310.6361,12/23.0/2022,2000,g 13.0,4.0
# From MPEC 2021-N06
217P/LINEAR,e,12.8622,125.4323,246.9292,3.948646,0.1256122,0.68928982,248.9967,12/23.0/2022,2000,g 12.0,4.0
# From MPEC 2022-K19
218P/LINEAR,e,2.7304,176.0064,59.5714,3.088560,0.1815808,0.62301993,147.1021,12/23.0/2022,2000,g 16.0,4.0
# From MPC100284
219P/LINEAR,e,11.5390,230.9516,107.5711,3.646793,0.1415264,0.35413204,300.8911,12/23.0/2022,2000,g 11.0,4.0
# From MPEC 2021-BE3
220P/McNaught,e,8.1280,150.1045,180.6007,3.117537,0.1790551,0.50140662,132.9337,12/23.0/2022,2000,g 15.0,4.0
# From MPEC 2022-UY9
221P/LINEAR,e,11.4442,229.6208,40.1765,3.459073,0.1532020,0.49365980,56.6454,12/23.0/2022,2000,g 14.5,4.0
# From MPC 92277
222P/LINEAR,e,5.0983,6.7759,346.2766,2.898716,0.1997081,0.71479868,258.7839,12/23.0/2022,2000,g 20.0,4.0
# From MPEC 2021-S45
223P/Skiff,e,27.0242,346.7680,37.8537,4.158617,0.1162200,0.41651738,165.5259,12/23.0/2022,2000,g 12.0,4.0
# From MPC 75727
224P/LINEAR-NEAT,e,13.3058,40.0385,16.6722,3.443428,0.1542473,0.40582167,12.9601,12/23.0/2022,2000,g 15.5,4.0
# From MPC 75727
225P/LINEAR,e,21.3668,14.2050,3.9123,3.648069,0.1414522,0.63846853,327.7398,12/23.0/2022,2000,g 18.0,4.0
# From MPC106349
226P/Pigott-LINEAR-Kowalski,e,44.0441,54.0122,341.0697,3.766175,0.1348508,0.52895695,310.2048,12/23.0/2022,2000,g 12.5,4.0
# From MPC102956
227P/Catalina-LINEAR,e,7.5011,36.8314,105.3214,3.448525,0.1539055,0.52885291,292.2091,12/23.0/2022,2000,g 16.5,2.0
# From MPEC 2022-HC2
228P/LINEAR,e,7.9132,30.9871,114.8753,4.167019,0.1158686,0.17629549,118.1681,12/23.0/2022,2000,g 14.1,4.0
# From MPC106349
229P/Gibbs,e,26.0918,157.9049,224.0554,3.926562,0.1266734,0.37790375,258.2265,12/23.0/2022,2000,g 13.0,4.0
# From MPEC 2022-WQ9
230P/LINEAR,e,15.4688,106.9802,313.4516,3.452394,0.1536468,0.54556628,42.8107,12/23.0/2022,2000,g 13.0,4.0
# From MPEC 2022-K19
231P/LINEAR-NEAT,e,12.2981,132.9778,44.1962,4.046591,0.1210794,0.24306002,155.8370,12/23.0/2022,2000,g 14.5,2.0
# From MPC112394
232P/Hill,e,14.6424,56.0234,53.2416,4.475357,0.1041028,0.33473165,141.2972,12/23.0/2022,2000,g 11.5,4.0
# From MPEC 2021-N06
233P/La Sagra,e,11.2884,74.9160,26.9658,3.028571,0.1870025,0.41217175,151.9078,12/23.0/2022,2000,g 15.0,4.0
# From MPEC 2022-K19
234P/LINEAR,e,11.5357,179.5726,357.2977,3.796780,0.1332235,0.25633830,270.6883,12/23.0/2022,2000,g 12.0,4.0
# From MPC110497
235P/LINEAR,e,9.5518,202.1954,334.3955,3.888798,0.1285231,0.34973659,219.0947,12/23.0/2022,2000,g 12.0,4.0
# From MPC107688
236P/LINEAR,e,16.3493,245.5755,119.3338,3.728163,0.1369184,0.50940584,254.0848,12/23.0/2022,2000,g 14.0,4.0
# From MPEC 2022-K19
237P/LINEAR,e,14.0160,245.3597,25.2599,3.511338,0.1497943,0.43410866,338.6272,12/23.0/2022,2000,g 14.5,2.0
# From MPEC 2022-X67
238P/Read,e,1.2640,51.6255,324.1915,3.165465,0.1750039,0.25150604,35.1109,12/23.0/2022,2000,g 14.5,4.0
# From MPEC 2021-F20
239P/LINEAR,e,11.3030,255.9277,220.3712,4.467654,0.1043722,0.63034374,150.6943,12/23.0/2022,2000,g 17.5,2.0
# From MPEC 2021-F20
240P/NEAT,e,23.5289,74.9084,351.9505,3.864280,0.1297482,0.44980590,218.1689,12/23.0/2022,2000,g 12.1,4.0
# From MPEC 2022-J42
241P/LINEAR,e,21.1015,305.4742,111.4622,4.921270,0.0902793,0.61034612,46.4989,12/23.0/2022,2000,g 13.5,4.0
# From MPEC 2021-S45
242P/Spahr,e,32.5100,180.3752,245.3648,5.503916,0.0763302,0.27917796,303.8649,12/23.0/2022,2000,g  8.0,4.0
# From MPEC 2022-K19
243P/NEAT,e,7.6415,87.5986,283.6372,3.829808,0.1315039,0.36062701,207.4897,12/23.0/2022,2000,g 12.5,4.0
# From MPEC 2022-X67
244P/Scotti,e,2.2593,353.9926,93.1172,4.896331,0.0909699,0.19931890,3.2453,12/23.0/2022,2000,g  9.0,4.0
# From MPEC 2022-CN4
245P/WISE,e,21.1894,316.6652,316.8591,4.047372,0.1210443,0.45617661,215.4449,12/23.0/2022,2000,g 14.0,4.0
# From MPEC 2022-Y15
246P/NEAT,e,15.9912,78.1167,177.5506,4.038095,0.1214617,0.28997706,80.7273,12/23.0/2022,2000,g 10.5,4.0
# From MPEC 2021-F20
247P/LINEAR,e,13.6587,54.0283,47.4066,3.967431,0.1247211,0.62466841,184.9176,12/23.0/2022,2000,g 16.5,2.0
# From MPC 75730
248P/Gibbs,e,6.3512,207.8105,209.8642,5.990018,0.0672298,0.63908874,292.9719,12/23.0/2022,2000,g 14.0,4.0
# From MPEC 2021-S45
